GLOBALSTAR M094         
1 39074U 13005C   23261.66628909 -.00000075  00000+0  16296-3 0  9991
2 39074  51.9977 323.1842 0000335  82.9805 277.1100 12.62267583491867
GLOBALSTAR M096         
1 39075U 13005D   23261.60014358 -.00000094  00000+0  57173-4 0  9994
2 39075  52.0103  11.3978 0000352  82.2211 277.8696 12.62268423490770
GLOBALSTAR M078         
1 39076U 13005E   23262.20695526 -.00000103  00000+0  26045-5 0  9990
2 39076  51.9866  94.9248 0000794 163.8026 196.2866 12.62261476489684
GLOBALSTAR M095         
1 39077U 13005F   23261.99629700 -.00000100  00000+0  22758-4 0  9990
2 39077  51.9790  93.0826 0000192 136.8853 223.2028 12.62268989489668
GLOBALSTAR M087         
1 52888U 22064A   23262.41444574 -.00000113  00000+0  29795-4 0  9994
2 52888  51.9758  76.0228 0009975  38.5863 321.5748 13.37552816 61150
